NORAD_CAT_ID,OBJECT_NAME,OBJECT_TYPE,EPOCH,MEAN_MOTION,ECCENTRICITY,INCLINATION,RA_OF_ASC_NODE,ARG_OF_PERICENTER,MEAN_ANOMALY,BSTAR,MEAN_MOTION_DOT,MEAN_MOTION_DDOT,TLE_LINE0,TLE_LINE1,TLE_LINE2,SEMIMAJOR_AXIS,PERIOD,APOGEE,PERIGEE,DECAYED
52373.0,STARLINK-3550,PAYLOAD,2023-03-26 21:31:13,15.08830903,0.0001437,53.2174,352.0132,93.2404,266.8752,0.00078327,0.00012197,0.0,0 STARLINK-3550,1 52373U 22045AU  23085.89668892  .00012197  00000-0  78327-3 0  9997,2 52373  53.2174 352.0132 0001437  93.2404 266.8752 15.08830903 53064,6917.908,95.438,540.767,538.779,0.0
52373.0,STARLINK-3550,PAYLOAD,2023-03-27 02:17:23,15.0885182,0.000152,53.2172,351.1218,96.8339,263.2826,0.0013522,0.00021305,0.0,0 STARLINK-3550,1 52373U 22045AU  23086.09540600  .00021305  00000-0  13522-2 0  9992,2 52373  53.2172 351.1218 0001520  96.8339 263.2826 15.08851820 53093,6917.844,95.437,540.761,538.658,0.0
52373.0,STARLINK-3550,PAYLOAD,2023-03-27 21:22:00,15.08860432,0.0001828,53.2158,347.5517,126.6199,233.4961,0.00066819,0.00010368,0.0,0 STARLINK-3550,1 52373U 22045AU  23086.89028006  .00010368  00000-0  66819-3 0  9996,2 52373  53.2158 347.5517 0001828 126.6199 233.4961 15.08860432 53217,6917.818,95.436,540.948,538.418,0.0
52373.0,STARLINK-3550,PAYLOAD,2023-03-28 03:43:32,15.08870494,0.0001228,53.2167,346.364,97.8581,262.2551,0.0010708,0.00016809,0.0,0 STARLINK-3550,1 52373U 22045AU  23087.15523740  .00016809  00000-0  10708-2 0  9992,2 52373  53.2167 346.3640 0001228  97.8581 262.2551 15.08870494 53257,6917.787,95.436,540.502,538.803,0.0
52373.0,STARLINK-3550,PAYLOAD,2023-03-28 16:26:37,15.08851536,0.0001627,53.2166,343.9858,86.9943,273.1235,0.00053236,8.197e-05,0.0,0 STARLINK-3550,1 52373U 22045AU  23087.68515973  .00008197  00000-0  53236-3 0  9994,2 52373  53.2166 343.9858 0001627  86.9943 273.1235 15.08851536 53339,6917.845,95.437,540.836,538.585,0.0
52373.0,STARLINK-3550,PAYLOAD,2023-03-28 21:12:47,15.08843242,0.0001021,53.2166,343.0944,57.219,302.89,0.00068166,0.00010578,0.0,0 STARLINK-3550,1 52373U 22045AU  23087.88388094  .00010578  00000-0  68166-3 0  9992,2 52373  53.2166 343.0944 0001021  57.2190 302.8900 15.08843242 53366,6917.87,95.437,540.442,539.029,0.0
52373.0,STARLINK-3550,PAYLOAD,2023-03-29 01:58:56,15.08853656,0.0001279,53.2165,342.1994,88.9016,271.2122,0.00092388,0.00014452,0.0,0 STARLINK-3550,1 52373U 22045AU  23088.08259798  .00014452  00000-0  92388-3 0  9991,2 52373  53.2165 342.1994 0001279  88.9016 271.2122 15.08853656 53391,6917.839,95.437,540.588,538.819,0.0
52373.0,STARLINK-3550,PAYLOAD,2023-03-29 21:03:34,15.0883772,0.0002102,53.216,338.6317,138.6462,221.469,0.00055886,8.617e-05,0.0,0 STARLINK-3550,1 52373U 22045AU  23088.87748113  .00008617  00000-0  55886-3 0  9990,2 52373  53.2160 338.6317 0002102 138.6462 221.4690 15.08837720 53514,6917.887,95.438,541.206,538.298,0.0
52373.0,STARLINK-3550,PAYLOAD,2023-03-30 09:46:39,15.08833361,7.76e-05,53.2164,336.2544,105.5612,254.5466,0.00026113,3.87e-05,0.0,0 STARLINK-3550,1 52373U 22045AU  23089.40740346  .00003870  00000-0  26113-3 0  9997,2 52373  53.2164 336.2544 0000776 105.5612 254.5466 15.08833361 53592,6917.901,95.438,540.303,539.229,0.0
52373.0,STARLINK-3550,PAYLOAD,2023-03-31 01:40:30,15.08873256,9.82e-05,53.216,333.2798,101.4035,258.7067,0.0028379,0.00045208,0.0,0 STARLINK-3550,1 52373U 22045AU  23090.06980187  .00045208  00000-0  28379-2 0  9996,2 52373  53.2160 333.2798 0000982 101.4035 258.7067 15.08873256 53690,6917.779,95.435,540.323,538.964,0.0
52373.0,STARLINK-3550,PAYLOAD,2023-03-31 15:58:59,15.08857559,0.000145,53.2158,330.6024,112.0321,248.0825,0.0018912,0.00029953,0.0,0 STARLINK-3550,1 52373U 22045AU  23090.66596630  .00029953  00000-0  18912-2 0  9999,2 52373  53.2158 330.6024 0001450 112.0321 248.0825 15.08857559 53789,6917.827,95.436,540.695,538.689,0.0
52373.0,STARLINK-3550,PAYLOAD,2023-03-31 20:45:08,15.08846597,0.0001254,53.2167,329.7096,114.4828,245.6295,0.0013754,0.00021673,0.0,0 STARLINK-3550,1 52373U 22045AU  23090.86468733  .00021673  00000-0  13754-2 0  9993,2 52373  53.2167 329.7096 0001254 114.4828 245.6295 15.08846597 53815,6917.86,95.437,540.593,538.858,0.0
52373.0,STARLINK-3550,PAYLOAD,2023-04-01 01:31:18,15.0885201,0.0001069,53.2164,328.8184,84.6767,275.4347,0.00097167,0.00015215,0.0,0 STARLINK-3550,1 52373U 22045AU  23091.06340735  .00015215  00000-0  97167-3 0  9993,2 52373  53.2164 328.8184 0001069  84.6767 275.4347 15.08852010 53843,6917.844,95.437,540.448,538.969,0.0
52373.0,STARLINK-3550,PAYLOAD,2023-04-01 19:00:33,15.08838963,9.03e-05,53.2166,325.5472,98.258,261.8514,0.0010253,0.00016067,0.0,0 STARLINK-3550,1 52373U 22045AU  23091.79205465  .00016067  00000-0  10253-2 0  9999,2 52373  53.2166 325.5472 0000903  98.2580 261.8514 15.08838963 53957,6917.884,95.438,540.373,539.124,0.0
52373.0,STARLINK-3550,PAYLOAD,2023-04-01 22:11:19,15.08839532,7.7e-05,53.2168,324.954,81.2674,278.8406,0.0013291,0.00020928,0.0,0 STARLINK-3550,1 52373U 22045AU  23091.92453583  .00020928  00000-0  13291-2 0  9996,2 52373  53.2168 324.9540 0000770  81.2674 278.8406 15.08839532 53979,6917.882,95.438,540.279,539.214,0.0
52373.0,STARLINK-3550,PAYLOAD,2023-04-02 01:22:06,15.08844681,9.16e-05,53.2167,324.3582,82.3032,277.8064,0.00091644,0.00014329,0.0,0 STARLINK-3550,1 52373U 22045AU  23092.05701504  .00014329  00000-0  91644-3 0  9997,2 52373  53.2167 324.3582 0000916  82.3032 277.8064 15.08844681 53992,6917.866,95.437,540.365,539.097,0.0
52373.0,STARLINK-3550,PAYLOAD,2023-04-02 20:26:43,15.08851844,0.0001132,53.217,320.7914,89.6499,270.4622,0.00064658,0.00010021,0.0,0 STARLINK-3550,1 52373U 22045AU  23092.85189361  .00010021  00000-0  64658-3 0  9996,2 52373  53.2170 320.7914 0001132  89.6499 270.4622 15.08851844 54116,6917.844,95.437,540.492,538.926,0.0
52373.0,STARLINK-3550,PAYLOAD,2023-04-02 22:02:06,15.08856088,0.0001108,53.2168,320.4947,88.4367,271.6752,0.00075505,0.00011754,0.0,0 STARLINK-3550,1 52373U 22045AU  23092.91813241  .00011754  00000-0  75505-3 0  9991,2 52373  53.2168 320.4947 0001108  88.4367 271.6752 15.08856088 54123,6917.831,95.437,540.463,538.93,0.0
52373.0,STARLINK-3550,PAYLOAD,2023-04-02 23:37:29,15.08858104,0.00011,53.2167,320.1973,88.3355,271.7763,0.00077377,0.00012054,0.0,0 STARLINK-3550,1 52373U 22045AU  23092.98437154  .00012054  00000-0  77377-3 0  9996,2 52373  53.2167 320.1973 0001100  88.3355 271.7763 15.08858104 54131,6917.825,95.436,540.451,538.929,0.0
52373.0,STARLINK-3550,PAYLOAD,2023-04-03 15:31:21,15.08845828,0.0001146,53.2171,317.2238,85.3475,274.7648,0.00020847,3.032e-05,0.0,0 STARLINK-3550,1 52373U 22045AU  23093.64677266  .00003032  00000-0  20847-3 0  9996,2 52373  53.2171 317.2238 0001146  85.3475 274.7648 15.08845828 54232,6917.863,95.437,540.52,538.935,0.0
52373.0,STARLINK-3550,PAYLOAD,2023-04-03 21:52:53,15.08844497,0.0001229,53.2173,316.0349,87.8705,272.2428,0.00013349,1.838e-05,0.0,0 STARLINK-3550,1 52373U 22045AU  23093.91173271  .00001838  00000-0  13349-3 0  9994,2 52373  53.2173 316.0349 0001229  87.8705 272.2428 15.08844497 54273,6917.867,95.437,540.582,538.881,0.0
52373.0,STARLINK-3550,PAYLOAD,2023-04-04 21:43:40,15.08847311,0.0001177,53.2178,311.5755,87.5928,272.5199,0.00025387,3.756e-05,0.0,0 STARLINK-3550,1 52373U 22045AU  23094.90533034  .00003756  00000-0  25387-3 0  9997,2 52373  53.2178 311.5755 0001177  87.5928 272.5199 15.08847311 54428,6917.858,95.437,540.537,538.909,0.0
52373.0,STARLINK-3550,PAYLOAD,2023-04-05 00:54:26,15.08852073,0.0001042,53.2151,310.9775,71.6188,288.4918,0.0002309,3.39e-05,0.0,0 STARLINK-3550,1 52373U 22045AU  23095.03780745  .00003390  00000-0  23090-3 0  9998,2 52373  53.2151 310.9775 0001042  71.6188 288.4918 15.08852073 54445,6917.843,95.437,540.429,538.988,0.0
52373.0,STARLINK-3550,PAYLOAD,2023-04-05 19:59:04,15.0883938,0.0001206,53.2139,307.4076,51.7425,308.3675,6.9211e-05,8.14e-06,0.0,0 STARLINK-3550,1 52373U 22045AU  23095.83269386  .00000814  00000-0  69211-4 0  9993,2 52373  53.2139 307.4076 0001206  51.7425 308.3675 15.08839380 54562,6917.882,95.438,540.582,538.913,0.0
52373.0,STARLINK-3550,PAYLOAD,2023-04-05 21:34:27,15.08841007,0.0001184,53.2145,307.1102,63.0521,297.0592,8.9679e-05,1.14e-05,0.0,0 STARLINK-3550,1 52373U 22045AU  23095.89893304  .00001140  00000-0  89679-4 0  9995,2 52373  53.2145 307.1102 0001184  63.0521 297.0592 15.08841007 54576,6917.877,95.437,540.561,538.923,0.0
52373.0,STARLINK-3550,PAYLOAD,2023-04-06 00:45:13,15.08841287,0.000102,53.2158,306.5145,70.5496,289.5606,0.00010405,1.369e-05,0.0,0 STARLINK-3550,1 52373U 22045AU  23096.03140940  .00001369  00000-0  10405-3 0  9996,2 52373  53.2158 306.5145 0001020  70.5496 289.5606 15.08841287 54597,6917.876,95.437,540.447,539.036,0.0
52373.0,STARLINK-3550,PAYLOAD,2023-04-07 13:19:06,15.08841791,0.000103,53.2136,299.6751,92.5092,267.6018,0.00022078,3.228e-05,0.0,0 STARLINK-3550,1 52373U 22045AU  23097.55493477  .00003228  00000-0  22078-3 0  9995,2 52373  53.2136 299.6751 0001030  92.5092 267.6018 15.08841791 54825,6917.875,95.437,540.452,539.027,0.0
52373.0,STARLINK-3550,PAYLOAD,2023-04-08 00:26:47,15.08854947,0.000104,53.2152,297.5946,81.0914,279.0195,0.00029423,4.4e-05,0.0,0 STARLINK-3550,1 52373U 22045AU  23098.01860740  .00004400  00000-0  29423-3 0  9992,2 52373  53.2152 297.5946 0001040  81.0914 279.0195 15.08854947 54890,6917.835,95.437,540.419,538.98,0.0
52373.0,STARLINK-3550,PAYLOAD,2023-04-08 13:09:53,15.08837518,0.0001006,53.2149,295.2158,82.1054,278.0053,7.6879e-05,9.36e-06,0.0,0 STARLINK-3550,1 52373U 22045AU  23098.54853711  .00000936  00000-0  76879-4 0  9998,2 52373  53.2149 295.2158 0001006  82.1054 278.0053 15.08837518 54971,6917.888,95.438,540.449,539.057,0.0
52373.0,STARLINK-3550,PAYLOAD,2023-04-09 03:28:22,15.08826094,0.0001236,53.2149,292.5391,71.5946,288.518,-0.00022113,-3.804e-05,0.0,0 STARLINK-3550,1 52373U 22045AU  23099.14470109 -.00003804  00000-0 -22113-3 0  9991,2 52373  53.2149 292.5391 0001236  71.5946 288.5180 15.08826094 55062,6917.923,95.438,540.643,538.933,0.0
